OBJECT_NAME,OBJECT_ID,EPOCH,MEAN_MOTION,ECCENTRICITY,INCLINATION,RA_OF_ASC_NODE,ARG_OF_PERICENTER,MEAN_ANOMALY,EPHEMERIS_TYPE,CLASSIFICATION_TYPE,NORAD_CAT_ID,ELEMENT_SET_NO,REV_AT_EPOCH,BSTAR,MEAN_MOTION_DOT,MEAN_MOTION_DDOT
IRIDIUM 154,2018-061F,2026-07-11T23:59:10.398624,14.34217644,.0002297,86.3941,46.4287,89.9133,270.2326,0,U,43574,999,41696,.49361371E-4,.158E-5,0
IRIDIUM 163,2018-061G,2026-07-12T01:12:14.410656,14.34217525,.00021493,86.3937,46.3218,85.2915,274.8526,0,U,43575,999,41694,.33859909E-4,.115E-5,0
IRIDIUM 156,2018-061H,2026-07-12T00:35:42.440928,14.34217676,.00020922,86.3937,46.3397,91.9496,268.1939,0,U,43576,999,41693,.25756641E-4,.92E-6,0
IRIDIUM 164,2018-061J,2026-07-12T00:08:18.648096,14.34217478,.00023074,86.3939,46.3886,89.4265,270.7195,0,U,43577,999,41697,.48909001E-4,.157E-5,0
IRIDIUM 159,2018-061K,2026-07-12T01:03:06.391872,14.34217138,.0002043,86.3934,46.3089,85.0366,275.1063,0,U,43578,999,41694,-.3001018E-5,.11E-6,0
IRIDIUM 180,2019-002A,2026-07-11T20:00:59.067936,14.34217524,.00022345,86.3990,343.2937,90.8281,269.3171,0,U,43922,999,39252,.23912282E-4,.87E-6,0
IRIDIUM 176,2019-002B,2026-07-11T19:57:10.080288,14.72246476,.00023411,86.6107,343.2347,89.5783,270.5702,0,U,43923,999,40287,.6620595E-4,.442E-5,0
IRIDIUM 168,2019-002C,2026-07-10T08:42:02.613600,14.34217872,.00022436,86.3988,343.9865,90.7210,269.4243,0,U,43924,999,39229,.8973003E-5,.45E-6,0
IRIDIUM 173,2019-002D,2026-07-11T19:33:34.817184,14.34217203,.00020468,86.3988,343.2679,91.6671,268.4759,0,U,43925,999,39248,-.33980645E-4,-.75E-6,0
IRIDIUM 169,2019-002E,2026-07-11T22:40:05.677824,14.38613023,.0001788,86.4219,14.8394,100.7313,259.4087,0,U,43926,999,39378,.43305E-5,.33E-6,0
IRIDIUM 172,2019-002F,2026-07-11T19:24:26.971200,14.34217820,.00021793,86.3985,343.2782,90.0881,270.0565,0,U,43927,999,39249,.37768032E-4,.126E-5,0
IRIDIUM 175,2019-002G,2026-07-12T05:29:53.138400,14.43626275,.00051691,86.4513,280.0540,121.1648,239.0060,0,U,43928,999,40259,.46267509E-4,.177E-5,0
IRIDIUM 171,2019-002H,2026-07-12T08:20:46.943520,14.34217604,.00022121,86.3996,343.3618,95.2668,264.8780,0,U,43929,999,39256,.14841224E-4,.61E-6,0
IRIDIUM 170,2019-002J,2026-07-11T20:06:03.280608,14.72247065,.00023017,86.6107,343.2344,85.7902,274.3578,0,U,43930,999,40288,.67143504E-4,.448E-5,0
IRIDIUM 167,2019-002K,2026-07-11T20:28:22.931616,14.34217726,.00022368,86.3989,343.2822,99.3604,260.7845,0,U,43931,999,39249,.2089655E-4,.78E-6,0
IRIDIUM 181,2023-068S,2026-07-11T17:14:28.724064,14.43311052,.00024246,86.4476,46.5324,84.2447,275.9030,0,U,56726,999,16597,.47990191E-4,.182E-5,0
IRIDIUM 177,2023-068T,2026-07-12T08:05:48.788736,14.80027574,.00021465,86.1983,316.8503,93.5696,266.5771,0,U,56727,999,17008,.73496672E-4,.582E-5,0
IRIDIUM 174,2023-068U,2026-07-11T19:48:09.883296,14.72255517,.00020326,86.6115,343.3894,85.2408,274.9041,0,U,56728,999,16964,.68119102E-4,.454E-5,0
IRIDIUM 178,2023-068V,2026-07-11T23:43:09.171840,14.80025197,.00023178,86.6533,14.9936,90.1856,269.9631,0,U,56729,999,17003,.25016812E-4,.215E-5,0
IRIDIUM 179,2023-068W,2026-07-11T23:35:27.743136,14.80033677,.00022898,86.6765,24.0490,92.1825,267.9659,0,U,56730,999,17003,.62978344E-4,.502E-5,0
